[{"OBJECT_NAME":"MOST","OBJECT_ID":"2003-031D","EPOCH":"2026-03-09T22:49:40.040832","MEAN_MOTION":14.21299328,"ECCENTRICITY":0.00099628,"INCLINATION":98.7084,"RA_OF_ASC_NODE":78.0491,"ARG_OF_PERICENTER":172.8548,"MEAN_ANOMALY":187.2773,"EPHEMERIS_TYPE":0,"CLASSIFICATION_TYPE":"U","NORAD_CAT_ID":27843,"ELEMENT_SET_NO":999,"REV_AT_EPOCH":17661,"BSTAR":7.3088665e-5,"MEAN_MOTION_DOT":1.16e-6,"MEAN_MOTION_DDOT":0},{"OBJECT_NAME":"OPS 6026 (DMSP 4A F1)","OBJECT_ID":"1966-082A","EPOCH":"2026-03-09T22:10:02.877024","MEAN_MOTION":14.43828468,"ECCENTRICITY":0.01147161,"INCLINATION":98.3253,"RA_OF_ASC_NODE":224.0817,"ARG_OF_PERICENTER":325.4208,"MEAN_ANOMALY":33.9559,"EPHEMERIS_TYPE":0,"CLASSIFICATION_TYPE":"U","NORAD_CAT_ID":2418,"ELEMENT_SET_NO":999,"REV_AT_EPOCH":9796,"BSTAR":0.00010432664,"MEAN_MOTION_DOT":3.36e-6,"MEAN_MOTION_DDOT":0}]
